<?xml version="1.0" encoding="UTF-8"?>
<ndm xmlns:xsi="http://www.w3.org/2001/XMLSchema-instance" xsi:noNamespaceSchemaLocation="https://sanaregistry.org/r/ndmxml_unqualified/ndmxml-2.0.0-master-2.0.xsd">
<omm id="CCSDS_OMM_VERS" version="2.0">
<header><CREATION_DATE/><ORIGINATOR/></header><body><segment><metadata><OBJECT_NAME>ORBCOMM FM24</OBJECT_NAME><OBJECT_ID>1998-053D</OBJECT_ID><CENTER_NAME>EARTH</CENTER_NAME><REF_FRAME>TEME</REF_FRAME><TIME_SYSTEM>UTC</TIME_SYSTEM><MEAN_ELEMENT_THEORY>SGP4</MEAN_ELEMENT_THEORY></metadata><data><meanElements><EPOCH>2025-03-19T21:24:29.709792</EPOCH><MEAN_MOTION>14.37746112</MEAN_MOTION><ECCENTRICITY>.0001561</ECCENTRICITY><INCLINATION>45.0087</INCLINATION><RA_OF_ASC_NODE>332.3949</RA_OF_ASC_NODE><ARG_OF_PERICENTER>108.2520</ARG_OF_PERICENTER><MEAN_ANOMALY>251.8498</MEAN_ANOMALY></meanElements><tleParameters><EPHEMERIS_TYPE>0</EPHEMERIS_TYPE><CLASSIFICATION_TYPE>U</CLASSIFICATION_TYPE><NORAD_CAT_ID>25478</NORAD_CAT_ID><ELEMENT_SET_NO>999</ELEMENT_SET_NO><REV_AT_EPOCH>38459</REV_AT_EPOCH><BSTAR>.14254E-2</BSTAR><MEAN_MOTION_DOT>.4189E-4</MEAN_MOTION_DOT><MEAN_MOTION_DDOT>0</MEAN_MOTION_DDOT></tleParameters></data></segment></body></omm>
<omm id="CCSDS_OMM_VERS" version="2.0">
<header><CREATION_DATE/><ORIGINATOR/></header><body><segment><metadata><OBJECT_NAME>ORBCOMM FM26</OBJECT_NAME><OBJECT_ID>1998-053F</OBJECT_ID><CENTER_NAME>EARTH</CENTER_NAME><REF_FRAME>TEME</REF_FRAME><TIME_SYSTEM>UTC</TIME_SYSTEM><MEAN_ELEMENT_THEORY>SGP4</MEAN_ELEMENT_THEORY></metadata><data><meanElements><EPOCH>2025-03-19T21:15:19.038528</EPOCH><MEAN_MOTION>14.36840220</MEAN_MOTION><ECCENTRICITY>.0005209</ECCENTRICITY><INCLINATION>45.0074</INCLINATION><RA_OF_ASC_NODE>326.5149</RA_OF_ASC_NODE><ARG_OF_PERICENTER>172.4581</ARG_OF_PERICENTER><MEAN_ANOMALY>187.6346</MEAN_ANOMALY></meanElements><tleParameters><EPHEMERIS_TYPE>0</EPHEMERIS_TYPE><CLASSIFICATION_TYPE>U</CLASSIFICATION_TYPE><NORAD_CAT_ID>25480</NORAD_CAT_ID><ELEMENT_SET_NO>999</ELEMENT_SET_NO><REV_AT_EPOCH>38480</REV_AT_EPOCH><BSTAR>.12025E-2</BSTAR><MEAN_MOTION_DOT>.3446E-4</MEAN_MOTION_DOT><MEAN_MOTION_DDOT>0</MEAN_MOTION_DDOT></tleParameters></data></segment></body></omm>
<omm id="CCSDS_OMM_VERS" version="2.0">
<header><CREATION_DATE/><ORIGINATOR/></header><body><segment><metadata><OBJECT_NAME>ORBCOMM FM28</OBJECT_NAME><OBJECT_ID>1998-053H</OBJECT_ID><CENTER_NAME>EARTH</CENTER_NAME><REF_FRAME>TEME</REF_FRAME><TIME_SYSTEM>UTC</TIME_SYSTEM><MEAN_ELEMENT_THEORY>SGP4</MEAN_ELEMENT_THEORY></metadata><data><meanElements><EPOCH>2025-03-19T21:38:10.571136</EPOCH><MEAN_MOTION>14.37970236</MEAN_MOTION><ECCENTRICITY>.0004601</ECCENTRICITY><INCLINATION>45.0045</INCLINATION><RA_OF_ASC_NODE>268.4832</RA_OF_ASC_NODE><ARG_OF_PERICENTER>200.9349</ARG_OF_PERICENTER><MEAN_ANOMALY>159.1311</MEAN_ANOMALY></meanElements><tleParameters><EPHEMERIS_TYPE>0</EPHEMERIS_TYPE><CLASSIFICATION_TYPE>U</CLASSIFICATION_TYPE><NORAD_CAT_ID>25482</NORAD_CAT_ID><ELEMENT_SET_NO>999</ELEMENT_SET_NO><REV_AT_EPOCH>38550</REV_AT_EPOCH><BSTAR>.1317E-2</BSTAR><MEAN_MOTION_DOT>.3878E-4</MEAN_MOTION_DOT><MEAN_MOTION_DDOT>0</MEAN_MOTION_DDOT></tleParameters></data></segment></body></omm>
<omm id="CCSDS_OMM_VERS" version="2.0">
<header><CREATION_DATE/><ORIGINATOR/></header><body><segment><metadata><OBJECT_NAME>ORBCOMM FM30</OBJECT_NAME><OBJECT_ID>1999-065A</OBJECT_ID><CENTER_NAME>EARTH</CENTER_NAME><REF_FRAME>TEME</REF_FRAME><TIME_SYSTEM>UTC</TIME_SYSTEM><MEAN_ELEMENT_THEORY>SGP4</MEAN_ELEMENT_THEORY></metadata><data><meanElements><EPOCH>2025-03-19T14:34:46.113888</EPOCH><MEAN_MOTION>14.36992853</MEAN_MOTION><ECCENTRICITY>.0008263</ECCENTRICITY><INCLINATION>45.0295</INCLINATION><RA_OF_ASC_NODE>153.6475</RA_OF_ASC_NODE><ARG_OF_PERICENTER>270.8746</ARG_OF_PERICENTER><MEAN_ANOMALY>89.1155</MEAN_ANOMALY></meanElements><tleParameters><EPHEMERIS_TYPE>0</EPHEMERIS_TYPE><CLASSIFICATION_TYPE>U</CLASSIFICATION_TYPE><NORAD_CAT_ID>25980</NORAD_CAT_ID><ELEMENT_SET_NO>999</ELEMENT_SET_NO><REV_AT_EPOCH>32156</REV_AT_EPOCH><BSTAR>.11924E-2</BSTAR><MEAN_MOTION_DOT>.3428E-4</MEAN_MOTION_DOT><MEAN_MOTION_DDOT>0</MEAN_MOTION_DDOT></tleParameters></data></segment></body></omm>
<omm id="CCSDS_OMM_VERS" version="2.0">
<header><CREATION_DATE/><ORIGINATOR/></header><body><segment><metadata><OBJECT_NAME>ORBCOMM FM32</OBJECT_NAME><OBJECT_ID>1999-065C</OBJECT_ID><CENTER_NAME>EARTH</CENTER_NAME><REF_FRAME>TEME</REF_FRAME><TIME_SYSTEM>UTC</TIME_SYSTEM><MEAN_ELEMENT_THEORY>SGP4</MEAN_ELEMENT_THEORY></metadata><data><meanElements><EPOCH>2025-03-19T13:32:15.506304</EPOCH><MEAN_MOTION>14.35997918</MEAN_MOTION><ECCENTRICITY>.0007097</ECCENTRICITY><INCLINATION>45.0138</INCLINATION><RA_OF_ASC_NODE>163.3417</RA_OF_ASC_NODE><ARG_OF_PERICENTER>286.1915</ARG_OF_PERICENTER><MEAN_ANOMALY>73.8152</MEAN_ANOMALY></meanElements><tleParameters><EPHEMERIS_TYPE>0</EPHEMERIS_TYPE><CLASSIFICATION_TYPE>U</CLASSIFICATION_TYPE><NORAD_CAT_ID>25982</NORAD_CAT_ID><ELEMENT_SET_NO>999</ELEMENT_SET_NO><REV_AT_EPOCH>32171</REV_AT_EPOCH><BSTAR>.13056E-2</BSTAR><MEAN_MOTION_DOT>.3689E-4</MEAN_MOTION_DOT><MEAN_MOTION_DDOT>0</MEAN_MOTION_DDOT></tleParameters></data></segment></body></omm>

</ndm>
