ORBCOMM FM24            
1 25478U 98053D   25078.89201053  .00004189  00000+0  14254-2 0  9990
2 25478  45.0087 332.3949 0001561 108.2520 251.8498 14.37746112384598
ORBCOMM FM26            
1 25480U 98053F   25078.88563702  .00003446  00000+0  12025-2 0  9993
2 25480  45.0074 326.5149 0005209 172.4581 187.6346 14.36840220384803
ORBCOMM FM28            
1 25482U 98053H   25078.90151124  .00003878  00000+0  13170-2 0  9990
2 25482  45.0045 268.4832 0004601 200.9349 159.1311 14.37970236385506
ORBCOMM FM30            
1 25980U 99065A   25078.60747817  .00003428  00000+0  11924-2 0  9990
2 25980  45.0295 153.6475 0008263 270.8746  89.1155 14.36992853321561
ORBCOMM FM32            
1 25982U 99065C   25078.56406836  .00003689  00000+0  13056-2 0  9997
2 25982  45.0138 163.3417 0007097 286.1915  73.8152 14.35997918321715
